start=new Date('2022-10-14T00:00:00.000Z').valueOf();
sats=[{"APOAPSIS":"548.311","RA_OF_ASC_NODE":"288.0556","CENTER_NAME":"EARTH","LAUNCH_DATE":"2020-04-22","TIME_SYSTEM":"UTC","NORAD_CAT_ID":"45547","MEAN_MOTION_DOT":"0.00001972","MEAN_ELEMENT_THEORY":"SGP4","ARG_OF_PERICENTER":"58.3820","COUNTRY_CODE":"US","MEAN_MOTION_DDOT":"0.0000000000000","DECAY_DATE":null,"CLASSIFICATION_TYPE":"U","SEMIMAJOR_AXIS":"6925.368","PERIAPSIS":"546.154","SITE":"AFETR","OBJECT_ID":"2020-025S","EPHEMERIS_TYPE":"0","REV_AT_EPOCH":"13770","FILE":"3609209","PERIOD":"95.593","MEAN_ANOMALY":"301.7321","INCLINATION":"53.0540","TLE_LINE2":"2 45547  53.0540 288.0556 0001557  58.3820 301.7321 15.06393807137709","OBJECT_TYPE":"PAYLOAD","TLE_LINE1":"1 45547U 20025S   22286.38234034  .00001972  00000-0  15129-3 0  9991","ELEMENT_SET_NO":"999","ECCENTRICITY":"0.00015570","REF_FRAME":"TEME","GP_ID":"214991455","RCS_SIZE":"LARGE","MEAN_MOTION":"15.06393807","EPOCH":"2022-10-13T09:10:34.205376","OBJECT_NAME":"STARLINK-1377","BSTAR":"0.00015129000000"},{"APOAPSIS":"548.500","RA_OF_ASC_NODE":"287.9316","LAUNCH_DATE":"2020-04-22","CENTER_NAME":"EARTH","MEAN_MOTION_DOT":"0.00001119","TIME_SYSTEM":"UTC","NORAD_CAT_ID":"45548","MEAN_ELEMENT_THEORY":"SGP4","ARG_OF_PERICENTER":"53.4091","COUNTRY_CODE":"US","MEAN_MOTION_DDOT":"0.0000000000000","DECAY_DATE":null,"CLASSIFICATION_TYPE":"U","PERIAPSIS":"545.955","SEMIMAJOR_AXIS":"6925.362","SITE":"AFETR","OBJECT_ID":"2020-025T","EPHEMERIS_TYPE":"0","FILE":"3609209","REV_AT_EPOCH":"13769","PERIOD":"95.592","MEAN_ANOMALY":"306.7067","TLE_LINE2":"2 45548  53.0541 287.9316 0001837  53.4091 306.7067 15.06395471137699","INCLINATION":"53.0541","OBJECT_TYPE":"PAYLOAD","TLE_LINE1":"1 45548U 20025T   22286.40814286  .00001119  00000-0  94043-4 0  9994","ELEMENT_SET_NO":"999","ECCENTRICITY":"0.00018370","REF_FRAME":"TEME","GP_ID":"214991206","MEAN_MOTION":"15.06395471","RCS_SIZE":"LARGE","EPOCH":"2022-10-13T09:47:43.543104","BSTAR":"0.00009404300000","OBJECT_NAME":"STARLINK-1378"},{"APOAPSIS":"548.323","LAUNCH_DATE":"2020-04-22","CENTER_NAME":"EARTH","RA_OF_ASC_NODE":"287.8331","MEAN_ELEMENT_THEORY":"SGP4","MEAN_MOTION_DOT":"-0.00000166","NORAD_CAT_ID":"45550","TIME_SYSTEM":"UTC","COUNTRY_CODE":"US","ARG_OF_PERICENTER":"44.5304","DECAY_DATE":null,"CLASSIFICATION_TYPE":"U","MEAN_MOTION_DDOT":"0.0000000000000","SITE":"AFETR","SEMIMAJOR_AXIS":"6925.374","PERIAPSIS":"546.155","REV_AT_EPOCH":"13769","FILE":"3609209","EPHEMERIS_TYPE":"0","OBJECT_ID":"2020-025V","INCLINATION":"53.0534","TLE_LINE2":"2 45550  53.0534 287.8331 0001565  44.5304 315.5810 15.06391672137699","PERIOD":"95.593","MEAN_ANOMALY":"315.5810","TLE_LINE1":"1 45550U 20025V   22286.42562321 -.00000166  00000-0  77796-5 0  9998","OBJECT_TYPE":"PAYLOAD","ECCENTRICITY":"0.00015650","ELEMENT_SET_NO":"999","GP_ID":"214990455","REF_FRAME":"TEME","MEAN_MOTION":"15.06391672","RCS_SIZE":"LARGE","BSTAR":"0.00000777960000","OBJECT_NAME":"STARLINK-1390","EPOCH":"2022-10-13T10:12:53.845344"},{"MEAN_MOTION":"15.06388020","RCS_SIZE":"LARGE","EPOCH":"2022-10-13T08:41:22.588800","BSTAR":"0.00002838200000","OBJECT_NAME":"STARLINK-1294","ECCENTRICITY":"0.00015970","ELEMENT_SET_NO":"999","REF_FRAME":"TEME","GP_ID":"214990705","OBJECT_TYPE":"PAYLOAD","TLE_LINE1":"1 45551U 20025W   22286.36206700  .00000141  00000-0  28382-4 0  9996","PERIOD":"95.593","MEAN_ANOMALY":"297.4491","TLE_LINE2":"2 45551  53.0552 268.1406 0001597  62.6660 297.4491 15.06388020137973","INCLINATION":"53.0552","SEMIMAJOR_AXIS":"6925.385","PERIAPSIS":"546.144","SITE":"AFETR","OBJECT_ID":"2020-025W","EPHEMERIS_TYPE":"0","FILE":"3609209","REV_AT_EPOCH":"13797","ARG_OF_PERICENTER":"62.6660","COUNTRY_CODE":"US","MEAN_MOTION_DDOT":"0.0000000000000","DECAY_DATE":null,"CLASSIFICATION_TYPE":"U","RA_OF_ASC_NODE":"268.1406","LAUNCH_DATE":"2020-04-22","CENTER_NAME":"EARTH","MEAN_MOTION_DOT":"0.00000141","NORAD_CAT_ID":"45551","TIME_SYSTEM":"UTC","MEAN_ELEMENT_THEORY":"SGP4","APOAPSIS":"548.356"},{"TLE_LINE1":"1 45553U 20025Y   22286.63850767  .00001143  00000-0  95606-4 0  9992","OBJECT_TYPE":"PAYLOAD","TLE_LINE2":"2 45553  53.0550 266.8832 0001588  59.5996 300.5150 15.06393951136727","INCLINATION":"53.0550","PERIOD":"95.593","MEAN_ANOMALY":"300.5150","OBJECT_NAME":"STARLINK-1323","BSTAR":"0.00009560600000","EPOCH":"2022-10-13T15:19:27.062688","RCS_SIZE":"LARGE","MEAN_MOTION":"15.06393951","GP_ID":"215024273","REF_FRAME":"TEME","ELEMENT_SET_NO":"999","ECCENTRICITY":"0.00015880","MEAN_ELEMENT_THEORY":"SGP4","NORAD_CAT_ID":"45553","TIME_SYSTEM":"UTC","MEAN_MOTION_DOT":"0.00001143","CENTER_NAME":"EARTH","LAUNCH_DATE":"2020-04-22","RA_OF_ASC_NODE":"266.8832","APOAPSIS":"548.332","REV_AT_EPOCH":"13672","FILE":"3609636","EPHEMERIS_TYPE":"0","OBJECT_ID":"2020-025Y","SITE":"AFETR","PERIAPSIS":"546.132","SEMIMAJOR_AXIS":"6925.367","DECAY_DATE":null,"CLASSIFICATION_TYPE":"U","MEAN_MOTION_DDOT":"0.0000000000000","COUNTRY_CODE":"US","ARG_OF_PERICENTER":"59.5996"},{"OBJECT_TYPE":"PAYLOAD","TLE_LINE1":"1 45554U 20025Z   22286.43116074  .00000813  00000-0  73494-4 0  9991","MEAN_ANOMALY":"309.3388","PERIOD":"95.593","INCLINATION":"53.0562","TLE_LINE2":"2 45554  53.0562 267.8132 0001941  50.7773 309.3388 15.06385407137980","EPOCH":"2022-10-13T10:20:52.287936","BSTAR":"0.00007349400000","OBJECT_NAME":"STARLINK-1325","MEAN_MOTION":"15.06385407","RCS_SIZE":"LARGE","REF_FRAME":"TEME","GP_ID":"214991705","ECCENTRICITY":"0.00019410","ELEMENT_SET_NO":"999","MEAN_MOTION_DOT":"0.00000813","NORAD_CAT_ID":"45554","TIME_SYSTEM":"UTC","MEAN_ELEMENT_THEORY":"SGP4","RA_OF_ASC_NODE":"267.8132","CENTER_NAME":"EARTH","LAUNCH_DATE":"2020-04-22","APOAPSIS":"548.603","OBJECT_ID":"2020-025Z","EPHEMERIS_TYPE":"0","FILE":"3609209","REV_AT_EPOCH":"13798","PERIAPSIS":"545.914","SEMIMAJOR_AXIS":"6925.393","SITE":"AFETR","MEAN_MOTION_DDOT":"0.0000000000000","DECAY_DATE":null,"CLASSIFICATION_TYPE":"U","ARG_OF_PERICENTER":"50.7773","COUNTRY_CODE":"US"},{"APOAPSIS":"548.279","RA_OF_ASC_NODE":"266.7981","CENTER_NAME":"EARTH","LAUNCH_DATE":"2020-04-22","MEAN_MOTION_DOT":"0.00001638","NORAD_CAT_ID":"45555","TIME_SYSTEM":"UTC","MEAN_ELEMENT_THEORY":"SGP4","ARG_OF_PERICENTER":"69.1895","COUNTRY_CODE":"US","MEAN_MOTION_DDOT":"0.0000000000000","CLASSIFICATION_TYPE":"U","DECAY_DATE":null,"PERIAPSIS":"546.207","SEMIMAJOR_AXIS":"6925.378","SITE":"AFETR","EPHEMERIS_TYPE":"0","OBJECT_ID":"2020-025AA","REV_AT_EPOCH":"13801","FILE":"3609636","PERIOD":"95.593","MEAN_ANOMALY":"290.9254","TLE_LINE2":"2 45555  53.0565 266.7981 0001496  69.1895 290.9254 15.06390270138014","INCLINATION":"53.0565","TLE_LINE1":"1 45555U 20025AA  22286.66062953  .00001638  00000-0  12888-3 0  9998","OBJECT_TYPE":"PAYLOAD","ECCENTRICITY":"0.00014960","ELEMENT_SET_NO":"999","REF_FRAME":"TEME","GP_ID":"215023272","MEAN_MOTION":"15.06390270","RCS_SIZE":"LARGE","EPOCH":"2022-10-13T15:51:18.391392","BSTAR":"0.00012888000000","OBJECT_NAME":"STARLINK-1327"},{"EPHEMERIS_TYPE":"0","OBJECT_ID":"2020-025AB","REV_AT_EPOCH":"13798","FILE":"3609209","PERIAPSIS":"546.099","SEMIMAJOR_AXIS":"6925.346","SITE":"AFETR","MEAN_MOTION_DDOT":"0.0000000000000","CLASSIFICATION_TYPE":"U","DECAY_DATE":null,"ARG_OF_PERICENTER":"55.1618","COUNTRY_CODE":"US","TIME_SYSTEM":"UTC","NORAD_CAT_ID":"45556","MEAN_MOTION_DOT":"0.00005057","MEAN_ELEMENT_THEORY":"SGP4","RA_OF_ASC_NODE":"267.8040","LAUNCH_DATE":"2020-04-22","CENTER_NAME":"EARTH","APOAPSIS":"548.323","EPOCH":"2022-10-13T10:27:31.709088","OBJECT_NAME":"STARLINK-1334","BSTAR":"0.00035814000000","RCS_SIZE":"LARGE","MEAN_MOTION":"15.06400809","REF_FRAME":"TEME","GP_ID":"214990206","ELEMENT_SET_NO":"999","ECCENTRICITY":"0.00016060","OBJECT_TYPE":"PAYLOAD","TLE_LINE1":"1 45556U 20025AB  22286.43578367  .00005057  00000-0  35814-3 0  9998","MEAN_ANOMALY":"304.9522","PERIOD":"95.592","TLE_LINE2":"2 45556  53.0531 267.8040 0001606  55.1618 304.9522 15.06400809137986","INCLINATION":"53.0531"},{"MEAN_ELEMENT_THEORY":"SGP4","NORAD_CAT_ID":"45557","TIME_SYSTEM":"UTC","MEAN_MOTION_DOT":"0.00002679","LAUNCH_DATE":"2020-04-22","CENTER_NAME":"EARTH","RA_OF_ASC_NODE":"266.2908","APOAPSIS":"548.348","REV_AT_EPOCH":"13803","FILE":"3609636","EPHEMERIS_TYPE":"0","OBJECT_ID":"2020-025AC","SITE":"AFETR","PERIAPSIS":"546.100","SEMIMAJOR_AXIS":"6925.359","CLASSIFICATION_TYPE":"U","DECAY_DATE":null,"MEAN_MOTION_DDOT":"0.0000000000000","COUNTRY_CODE":"US","ARG_OF_PERICENTER":"60.5669","TLE_LINE1":"1 45557U 20025AC  22286.77488880  .00002679  00000-0  19869-3 0  9995","OBJECT_TYPE":"PAYLOAD","INCLINATION":"53.0526","TLE_LINE2":"2 45557  53.0526 266.2908 0001623  60.5669 299.5482 15.06396506138031","PERIOD":"95.592","MEAN_ANOMALY":"299.5482","OBJECT_NAME":"STARLINK-1336","BSTAR":"0.00019869000000","EPOCH":"2022-10-13T18:35:50.392320","RCS_SIZE":"LARGE","MEAN_MOTION":"15.06396506","GP_ID":"215024773","REF_FRAME":"TEME","ELEMENT_SET_NO":"999","ECCENTRICITY":"0.00016230"},{"LAUNCH_DATE":"2020-04-22","CENTER_NAME":"EARTH","RA_OF_ASC_NODE":"266.7390","MEAN_ELEMENT_THEORY":"SGP4","MEAN_MOTION_DOT":"0.00001921","NORAD_CAT_ID":"45558","TIME_SYSTEM":"UTC","APOAPSIS":"548.615","SITE":"AFETR","PERIAPSIS":"545.805","SEMIMAJOR_AXIS":"6925.345","FILE":"3609636","REV_AT_EPOCH":"13801","OBJECT_ID":"2020-025AD","EPHEMERIS_TYPE":"0","COUNTRY_CODE":"US","ARG_OF_PERICENTER":"47.1997","CLASSIFICATION_TYPE":"U","DECAY_DATE":null,"MEAN_MOTION_DDOT":"0.0000000000000","OBJECT_TYPE":"PAYLOAD","TLE_LINE1":"1 45558U 20025AD  22286.67536831  .00001921  00000-0  14786-3 0  9997","TLE_LINE2":"2 45558  53.0531 266.7390 0002029  47.1997 312.9162 15.06401056138014","INCLINATION":"53.0531","MEAN_ANOMALY":"312.9162","PERIOD":"95.592","MEAN_MOTION":"15.06401056","RCS_SIZE":"LARGE","BSTAR":"0.00014786000000","OBJECT_NAME":"STARLINK-1342","EPOCH":"2022-10-13T16:12:31.821984","ECCENTRICITY":"0.00020290","ELEMENT_SET_NO":"999","GP_ID":"215025008","REF_FRAME":"TEME"}];
